[{"OBJECT_NAME":"TOMORROW-S7","OBJECT_ID":"2025-081B","EPOCH":"2026-03-09T15:35:01.135680","MEAN_MOTION":14.99242141,"ECCENTRICITY":4.629e-5,"INCLINATION":45.3909,"RA_OF_ASC_NODE":132.557,"ARG_OF_PERICENTER":121.9907,"MEAN_ANOMALY":238.1016,"EPHEMERIS_TYPE":0,"CLASSIFICATION_TYPE":"U","NORAD_CAT_ID":63631,"ELEMENT_SET_NO":999,"REV_AT_EPOCH":4823,"BSTAR":0.00019092565,"MEAN_MOTION_DOT":2.135e-5,"MEAN_MOTION_DDOT":0},{"OBJECT_NAME":"STARLINK-34007","OBJECT_ID":"2025-094E","EPOCH":"2026-03-09T20:31:26.186880","MEAN_MOTION":14.98405216,"ECCENTRICITY":0.00045816,"INCLINATION":70.0017,"RA_OF_ASC_NODE":234.2102,"ARG_OF_PERICENTER":277.8261,"MEAN_ANOMALY":82.2378,"EPHEMERIS_TYPE":0,"CLASSIFICATION_TYPE":"U","NORAD_CAT_ID":63868,"ELEMENT_SET_NO":999,"REV_AT_EPOCH":4722,"BSTAR":-0.00099610286,"MEAN_MOTION_DOT":-0.00011983,"MEAN_MOTION_DDOT":0}]
